{
  "type": "FeatureCollection",
  "features": [
    {
      "type": "Feature",
      "properties": {
        "norad_id": 66683,
        "name": "TRANSPORTER-15T",
        "group": "last-30-days",
        "lat": 51.81064713890152,
        "lon": -100.62930913890648,
        "alt_km": 511.10506253276253,
        "timestamp": "2025-12-24T05:51:18.324790+00:00",
        "meta_object_name": "TRANSPORTER-15T",
        "meta_object_id": "2025-276T",
        "meta_epoch": "2025-12-23T21:22:45.745536",
        "meta_mean_motion": 15.17036124,
        "meta_eccentricity": 0.00048305,
        "meta_inclination": 97.4447,
        "meta_ra_of_asc_node": 69.455,
        "meta_arg_of_pericenter": 237.7995,
        "meta_mean_anomaly": 122.2771,
        "meta_ephemeris_type": 0,
        "meta_classification_type": "U",
        "meta_norad_cat_id": 66683,
        "meta_element_set_no": 999,
        "meta_rev_at_epoch": 381,
        "meta_bstar": 0.00051114071,
        "meta_mean_motion_dot": 0.00010053,
        "meta_mean_motion_ddot": 0,
        "tle_line1": "1 66683U 25276T   25357.89080724  .00010053  00000+0  51114-3 0  9994",
        "tle_line2": "2 66683  97.4447  69.4550 0004830 237.7995 122.2771 15.17036124  3816"
      },
      "geometry": {
        "type": "Point",
        "coordinates": [
          -100.62930913890648,
          51.81064713890152
        ]
      }
    },
    {
      "type": "Feature",
      "properties": {
        "norad_id": 66684,
        "name": "TRANSPORTER-15U",
        "group": "last-30-days",
        "lat": 33.42073383554176,
        "lon": -105.2305925436102,
        "alt_km": 511.77135404163346,
        "timestamp": "2025-12-24T05:51:18.324800+00:00",
        "meta_object_name": "TRANSPORTER-15U",
        "meta_object_id": "2025-276U",
        "meta_epoch": "2025-12-23T21:17:56.524128",
        "meta_mean_motion": 15.17340505,
        "meta_eccentricity": 0.00046152,
        "meta_inclination": 97.4472,
        "meta_ra_of_asc_node": 69.4671,
        "meta_arg_of_pericenter": 235.9644,
        "meta_mean_anomaly": 124.1152,
        "meta_ephemeris_type": 0,
        "meta_classification_type": "U",
        "meta_norad_cat_id": 66684,
        "meta_element_set_no": 999,
        "meta_rev_at_epoch": 381,
        "meta_bstar": 0.00065028734,
        "meta_mean_motion_dot": 0.00012924,
        "meta_mean_motion_ddot": 0,
        "tle_line1": "1 66684U 25276U   25357.88745977  .00012924  00000+0  65029-3 0  9991",
        "tle_line2": "2 66684  97.4472  69.4671 0004615 235.9644 124.1152 15.17340505  3816"
      },
      "geometry": {
        "type": "Point",
        "coordinates": [
          -105.2305925436102,
          33.42073383554176
        ]
      }
    },
    {
      "type": "Feature",
      "properties": {
        "norad_id": 66685,
        "name": "TRANSPORTER-15V",
        "group": "last-30-days",
        "lat": 25.640053308353888,
        "lon": -106.60003887080448,
        "alt_km": 513.3089505752041,
        "timestamp": "2025-12-24T05:51:18.324809+00:00",
        "meta_object_name": "TRANSPORTER-15V",
        "meta_object_id": "2025-276V",
        "meta_epoch": "2025-12-23T22:50:52.547712",
        "meta_mean_motion": 15.17494854,
        "meta_eccentricity": 0.00040982,
        "meta_inclination": 97.4416,
        "meta_ra_of_asc_node": 69.5162,
        "meta_arg_of_pericenter": 258.7608,
        "meta_mean_anomaly": 101.3166,
        "meta_ephemeris_type": 0,
        "meta_classification_type": "U",
        "meta_norad_cat_id": 66685,
        "meta_element_set_no": 999,
        "meta_rev_at_epoch": 382,
        "meta_bstar": 0.0007683769,
        "meta_mean_motion_dot": 0.00015355,
        "meta_mean_motion_ddot": 0,
        "tle_line1": "1 66685U 25276V   25357.95199708  .00015355  00000+0  76838-3 0  9996",
        "tle_line2": "2 66685  97.4416  69.5162 0004098 258.7608 101.3166 15.17494854  3829"
      },
      "geometry": {
        "type": "Point",
        "coordinates": [
          -106.60003887080448,
          25.640053308353888
        ]
      }
    },
    {
      "type": "Feature",
      "properties": {
        "norad_id": 66686,
        "name": "TRANSPORTER-15W",
        "group": "last-30-days",
        "lat": 37.30513845467723,
        "lon": -104.47815486150093,
        "alt_km": 505.08418255940524,
        "timestamp": "2025-12-24T05:51:18.324827+00:00",
        "meta_object_name": "TRANSPORTER-15W",
        "meta_object_id": "2025-276W",
        "meta_epoch": "2025-12-23T03:56:36.504096",
        "meta_mean_motion": 15.1831658,
        "meta_eccentricity": 0.00058538,
        "meta_inclination": 97.445,
        "meta_ra_of_asc_node": 68.7391,
        "meta_arg_of_pericenter": 311.4119,
        "meta_mean_anomaly": 48.6611,
        "meta_ephemeris_type": 0,
        "meta_classification_type": "U",
        "meta_norad_cat_id": 66686,
        "meta_element_set_no": 999,
        "meta_rev_at_epoch": 370,
        "meta_bstar": 0.05265621,
        "meta_mean_motion_dot": 0.01174743,
        "meta_mean_motion_ddot": 0,
        "tle_line1": "1 66686U 25276W   25357.16431139  .01174743  00000+0  52656-1 0  9995",
        "tle_line2": "2 66686  97.4450  68.7391 0005853 311.4119  48.6611 15.18316580  3702"
      },
      "geometry": {
        "type": "Point",
        "coordinates": [
          -104.47815486150093,
          37.30513845467723
        ]
      }
    },
    {
      "type": "Feature",
      "properties": {
        "norad_id": 66687,
        "name": "TRANSPORTER-15X",
        "group": "last-30-days",
        "lat": 76.50401635544121,
        "lon": -77.24951120075207,
        "alt_km": 505.0447850194132,
        "timestamp": "2025-12-24T05:51:18.324837+00:00",
        "meta_object_name": "TRANSPORTER-15X",
        "meta_object_id": "2025-276X",
        "meta_epoch": "2025-12-23T23:04:38.785728",
        "meta_mean_motion": 15.1672815,
        "meta_eccentricity": 0.00081112,
        "meta_inclination": 97.4384,
        "meta_ra_of_asc_node": 69.4923,
        "meta_arg_of_pericenter": 50.4861,
        "meta_mean_anomaly": 309.7088,
        "meta_ephemeris_type": 0,
        "meta_classification_type": "U",
        "meta_norad_cat_id": 66687,
        "meta_element_set_no": 999,
        "meta_rev_at_epoch": 382,
        "meta_bstar": 0.0006890059,
        "meta_mean_motion_dot": 0.00013468,
        "meta_mean_motion_ddot": 0,
        "tle_line1": "1 66687U 25276X   25357.96156002  .00013468  00000+0  68901-3 0  9994",
        "tle_line2": "2 66687  97.4384  69.4923 0008111  50.4861 309.7088 15.16728150  3822"
      },
      "geometry": {
        "type": "Point",
        "coordinates": [
          -77.24951120075207,
          76.50401635544121
        ]
      }
    },
    {
      "type": "Feature",
      "properties": {
        "norad_id": 66688,
        "name": "TRANSPORTER-15Y",
        "group": "last-30-days",
        "lat": 42.25721300398751,
        "lon": -103.37764251898115,
        "alt_km": 511.9219750570701,
        "timestamp": "2025-12-24T05:51:18.324847+00:00",
        "meta_object_name": "TRANSPORTER-15Y",
        "meta_object_id": "2025-276Y",
        "meta_epoch": "2025-12-23T21:20:13.342848",
        "meta_mean_motion": 15.17092452,
        "meta_eccentricity": 0.0003754,
        "meta_inclination": 97.4429,
        "meta_ra_of_asc_node": 69.4523,
        "meta_arg_of_pericenter": 244.1078,
        "meta_mean_anomaly": 115.9768,
        "meta_ephemeris_type": 0,
        "meta_classification_type": "U",
        "meta_norad_cat_id": 66688,
        "meta_element_set_no": 999,
        "meta_rev_at_epoch": 381,
        "meta_bstar": 0.00052321049,
        "meta_mean_motion_dot": 0.00010307,
        "meta_mean_motion_ddot": 0,
        "tle_line1": "1 66688U 25276Y   25357.88904332  .00010307  00000+0  52321-3 0  9991",
        "tle_line2": "2 66688  97.4429  69.4523 0003754 244.1078 115.9768 15.17092452  3810"
      },
      "geometry": {
        "type": "Point",
        "coordinates": [
          -103.37764251898115,
          42.25721300398751
        ]
      }
    },
    {
      "type": "Feature",
      "properties": {
        "norad_id": 66689,
        "name": "TRANSPORTER-15Z",
        "group": "last-30-days",
        "lat": -29.29636131699403,
        "lon": -114.37652941952913,
        "alt_km": 472.1333655985727,
        "timestamp": "2025-12-24T05:51:18.324856+00:00",
        "meta_object_name": "TRANSPORTER-15Z",
        "meta_object_id": "2025-276Z",
        "meta_epoch": "2025-12-22T21:27:46.425312",
        "meta_mean_motion": 15.23073772,
        "meta_eccentricity": 0.00272271,
        "meta_inclination": 97.4409,
        "meta_ra_of_asc_node": 68.4858,
        "meta_arg_of_pericenter": 260.8557,
        "meta_mean_anomaly": 98.9599,
        "meta_ephemeris_type": 0,
        "meta_classification_type": "U",
        "meta_norad_cat_id": 66689,
        "meta_element_set_no": 999,
        "meta_rev_at_epoch": 366,
        "meta_bstar": 0.086131248,
        "meta_mean_motion_dot": 0.02294864,
        "meta_mean_motion_ddot": 0,
        "tle_line1": "1 66689U 25276Z   25356.89428733  .02294864  00000+0  86131-1 0  9996",
        "tle_line2": "2 66689  97.4409  68.4858 0027227 260.8557  98.9599 15.23073772  3663"
      },
      "geometry": {
        "type": "Point",
        "coordinates": [
          -114.37652941952913,
          -29.29636131699403
        ]
      }
    }
  ]
}